[{"OBJECT_NAME":"SKYSAT-C6","OBJECT_ID":"2017-068F","EPOCH":"2026-03-09T21:33:49.392576","MEAN_MOTION":15.32504544,"ECCENTRICITY":0.00036369,"INCLINATION":97.44,"RA_OF_ASC_NODE":205.7173,"ARG_OF_PERICENTER":127.5085,"MEAN_ANOMALY":232.6488,"EPHEMERIS_TYPE":0,"CLASSIFICATION_TYPE":"U","NORAD_CAT_ID":42992,"ELEMENT_SET_NO":999,"REV_AT_EPOCH":46710,"BSTAR":0.00039699196,"MEAN_MOTION_DOT":0.0001239,"MEAN_MOTION_DDOT":0},{"OBJECT_NAME":"STARLINK-31711","OBJECT_ID":"2024-065T","EPOCH":"2026-03-09T21:35:54.365856","MEAN_MOTION":15.30193285,"ECCENTRICITY":0.00012082,"INCLINATION":53.1599,"RA_OF_ASC_NODE":280.5503,"ARG_OF_PERICENTER":104.8022,"MEAN_ANOMALY":255.3113,"EPHEMERIS_TYPE":0,"CLASSIFICATION_TYPE":"U","NORAD_CAT_ID":59438,"ELEMENT_SET_NO":999,"REV_AT_EPOCH":10896,"BSTAR":9.171415e-6,"MEAN_MOTION_DOT":-8.8e-7,"MEAN_MOTION_DDOT":0}]
